OBJECT_NAME,OBJECT_ID,EPOCH,MEAN_MOTION,ECCENTRICITY,INCLINATION,RA_OF_ASC_NODE,ARG_OF_PERICENTER,MEAN_ANOMALY,EPHEMERIS_TYPE,CLASSIFICATION_TYPE,NORAD_CAT_ID,ELEMENT_SET_NO,REV_AT_EPOCH,BSTAR,MEAN_MOTION_DOT,MEAN_MOTION_DDOT
IRIDIUM 138,2017-083B,2026-03-01T09:13:47.190144,14.34217599,.0002302,86.4024,6.7404,77.7847,282.3607,0,U,43071,999,42868,-.56411E-5,.4E-7,0
IRIDIUM 116,2017-083C,2026-03-01T08:28:07.158432,14.34217542,.0001878,86.4012,7.0620,92.7535,267.3876,0,U,43072,999,42871,-.17216E-5,.15E-6,0
IRIDIUM 130,2017-083D,2026-03-01T09:22:55.081056,14.34218526,.0001867,86.4020,7.3103,86.2866,273.8543,0,U,43073,999,42866,.108E-3,.322E-5,0
IRIDIUM 151,2017-083E,2026-03-01T08:46:23.189952,14.34217451,.0002045,86.4010,7.1119,86.5015,273.6414,0,U,43074,999,42868,-.81683E-5,-.3E-7,0
IRIDIUM 134,2017-083F,2026-03-01T09:41:11.148000,14.34217617,.0001945,86.4013,7.1024,84.5725,275.5692,0,U,43075,999,42865,-.76559E-6,.18E-6,0
IRIDIUM 137,2017-083G,2026-03-01T08:18:59.177664,14.34217927,.0002265,86.4015,7.2162,97.5291,262.6162,0,U,43076,999,42871,.11359E-4,.52E-6,0
IRIDIUM 141,2017-083H,2026-03-01T08:09:52.436736,14.34218845,.000226,86.4012,7.0560,83.1880,276.9573,0,U,43077,999,42871,.11118E-3,.331E-5,0
IRIDIUM 153,2017-083J,2026-03-01T07:00:59.427936,14.34217639,.000218,86.4019,335.5897,77.7680,282.3759,0,U,43078,999,42981,-.29227E-5,.12E-6,0
IRIDIUM 131,2017-083K,2026-03-01T09:32:02.976288,14.34215289,.0002336,86.4018,7.2109,85.5018,274.6445,0,U,43079,999,42865,.66824E-4,.207E-5,0
IRIDIUM 144,2018-030A,2026-03-01T07:10:07.402656,14.34217086,.000192,86.4009,335.5187,87.4879,272.6537,0,U,43249,999,41467,-.26947E-4,-.56E-6,0
IRIDIUM 149,2018-030B,2026-03-01T07:19:15.423168,14.34218014,.0002186,86.4014,335.4842,83.5698,276.5747,0,U,43250,999,41469,.63281E-4,.197E-5,0
IRIDIUM 157,2018-030C,2026-03-01T06:06:11.413728,14.34218099,.0002171,86.4016,335.5565,84.1608,275.9835,0,U,43251,999,41466,.4783E-4,.154E-5,0
IRIDIUM 140,2018-030D,2026-03-01T06:33:35.407872,14.34217948,.0002077,86.4017,335.5612,83.5431,276.6001,0,U,43252,999,41472,.55992E-4,.177E-5,0
IRIDIUM 145,2018-030E,2026-03-01T06:15:19.329696,14.34217650,.000186,86.4015,335.5390,91.6485,268.4923,0,U,43253,999,41465,.60057E-4,.188E-5,0
IRIDIUM 146,2018-030F,2026-03-01T07:28:23.411712,14.34217294,.000191,86.4011,335.5303,88.2195,271.9220,0,U,43254,999,41467,-.13811E-4,-.19E-6,0
IRIDIUM 148,2018-030G,2026-03-01T06:42:43.432704,14.34218286,.0002149,86.4017,335.5850,86.1014,274.0427,0,U,43255,999,41470,.95886E-4,.288E-5,0
IRIDIUM 142,2018-030H,2026-03-01T05:57:03.368160,14.34217896,.0001871,86.4014,335.4913,90.8529,269.2881,0,U,43256,999,41466,.17743E-4,.69E-6,0
IRIDIUM 150,2018-030J,2026-03-01T06:51:51.238080,14.34216117,.0001984,86.4014,335.5879,84.5507,275.5915,0,U,43257,999,41469,-.89826E-4,-.232E-5,0
IRIDIUM 143,2018-030K,2026-03-01T06:24:27.400320,14.34217347,.0001818,86.4015,335.6839,88.3507,271.7897,0,U,43258,999,41462,-.12369E-4,-.15E-6,0
IRIDIUM 161,2018-047C,2026-03-01T06:57:54.428256,14.43281428,.0002556,86.4516,133.5920,93.7027,266.4466,0,U,43478,999,40957,.11044E-3,.392E-5,0
IRIDIUM 152,2018-047D,2026-03-01T05:45:10.296000,14.34217779,.0002275,86.3990,133.4735,93.1674,266.9782,0,U,43479,999,40701,.80605E-4,.246E-5,0
IRIDIUM 147,2018-047E,2026-03-01T05:54:18.264672,14.34217886,.0002182,86.3991,133.4740,99.7147,260.4295,0,U,43480,999,40701,.13315E-4,.57E-6,0
IRIDIUM 110,2018-047F,2026-03-01T06:03:26.316288,14.34217868,.0002441,86.3993,133.5597,91.1422,269.0053,0,U,43481,999,40700,.96009E-5,.47E-6,0
IRIDIUM 162,2018-047G,2026-03-01T06:48:49.845600,14.43280215,.0002129,86.4513,133.4868,91.4585,268.6859,0,U,43482,999,40956,.10411E-3,.37E-5,0
IRIDIUM 160,2018-061A,2026-03-01T11:27:18.548064,14.34217834,.000238,86.3928,101.8532,93.1886,266.9582,0,U,43569,999,39793,.17905E-4,.7E-6,0
IRIDIUM 166,2018-061B,2026-03-01T12:03:50.466816,14.34218298,.0002178,86.3925,101.7944,96.4907,263.6536,0,U,43570,999,39796,.78883E-4,.241E-5,0
IRIDIUM 158,2018-061C,2026-03-01T11:18:10.274400,14.34217193,.0002148,86.3926,101.8176,89.6054,270.5388,0,U,43571,999,39792,.79281E-4,.242E-5,0
IRIDIUM 165,2018-061D,2026-03-01T11:54:42.509376,14.34217128,.0002207,86.3928,101.8514,97.5584,262.5863,0,U,43572,999,39795,-.19051E-5,.14E-6,0
IRIDIUM 155,2018-061E,2026-03-01T02:37:34.450464,14.34217731,.00019546,86.3923,101.8872,91.9952,268.1468,0,U,43573,999,39786,-.31704249E-4,-.69E-6,0
IRIDIUM 154,2018-061F,2026-03-01T12:12:59.955264,14.34220419,.0002179,86.3927,101.8487,99.0079,261.1363,0,U,43574,999,39797,.96547E-4,.29E-5,0
IRIDIUM 163,2018-061G,2026-03-01T11:45:34.472448,14.34217647,.0002133,86.3927,101.7753,91.3861,268.7579,0,U,43575,999,39794,.56755E-6,.21E-6,0
