IRIDIUM 138             
1 43071U 17083B   26060.38457396  .00000004  00000+0 -56411-5 0  9999
2 43071  86.4024   6.7404 0002302  77.7847 282.3607 14.34217599428680
IRIDIUM 116             
1 43072U 17083C   26060.35286063  .00000015  00000+0 -17216-5 0  9990
2 43072  86.4012   7.0620 0001878  92.7535 267.3876 14.34217542428713
IRIDIUM 130             
1 43073U 17083D   26060.39091529  .00000322  00000+0  10800-3 0  9996
2 43073  86.4020   7.3103 0001867  86.2866 273.8543 14.34218526428665
IRIDIUM 151             
1 43074U 17083E   26060.36554618 -.00000003  00000+0 -81683-5 0  9994
2 43074  86.4010   7.1119 0002045  86.5015 273.6414 14.34217451428681
IRIDIUM 134             
1 43075U 17083F   26060.40360125  .00000018  00000+0 -76559-6 0  9990
2 43075  86.4013   7.1024 0001945  84.5725 275.5692 14.34217617428654
IRIDIUM 137             
1 43076U 17083G   26060.34651826  .00000052  00000+0  11359-4 0  9997
2 43076  86.4015   7.2162 0002265  97.5291 262.6162 14.34217927428719
IRIDIUM 141             
1 43077U 17083H   26060.34019024  .00000331  00000+0  11118-3 0  9998
2 43077  86.4012   7.0560 0002260  83.1880 276.9573 14.34218845428711
IRIDIUM 153             
1 43078U 17083J   26060.29235449  .00000012  00000+0 -29227-5 0  9993
2 43078  86.4019 335.5897 0002180  77.7680 282.3759 14.34217639429818
IRIDIUM 131             
1 43079U 17083K   26060.39725667  .00000207  00000+0  66824-4 0  9999
2 43079  86.4018   7.2109 0002336  85.5018 274.6445 14.34215289428658
IRIDIUM 144             
1 43249U 18030A   26060.29869679 -.00000056  00000+0 -26947-4 0  9998
2 43249  86.4009 335.5187 0001920  87.4879 272.6537 14.34217086414678
IRIDIUM 149             
1 43250U 18030B   26060.30503962  .00000197  00000+0  63281-4 0  9998
2 43250  86.4014 335.4842 0002186  83.5698 276.5747 14.34218014414694
IRIDIUM 157             
1 43251U 18030C   26060.25429877  .00000154  00000+0  47830-4 0  9990
2 43251  86.4016 335.5565 0002171  84.1608 275.9835 14.34218099414663
IRIDIUM 140             
1 43252U 18030D   26060.27332648  .00000177  00000+0  55992-4 0  9995
2 43252  86.4017 335.5612 0002077  83.5431 276.6001 14.34217948414722
IRIDIUM 145             
1 43253U 18030E   26060.26064039  .00000188  00000+0  60057-4 0  9991
2 43253  86.4015 335.5390 0001860  91.6485 268.4923 14.34217650414656
IRIDIUM 146             
1 43254U 18030F   26060.31138208 -.00000019  00000+0 -13811-4 0  9999
2 43254  86.4011 335.5303 0001910  88.2195 271.9220 14.34217294414678
IRIDIUM 148             
1 43255U 18030G   26060.27966936  .00000288  00000+0  95886-4 0  9990
2 43255  86.4017 335.5850 0002149  86.1014 274.0427 14.34218286414703
IRIDIUM 142             
1 43256U 18030H   26060.24795565  .00000069  00000+0  17743-4 0  9999
2 43256  86.4014 335.4913 0001871  90.8529 269.2881 14.34217896414665
IRIDIUM 150             
1 43257U 18030J   26060.28600970 -.00000232  00000+0 -89826-4 0  9994
2 43257  86.4014 335.5879 0001984  84.5507 275.5915 14.34216117414695
IRIDIUM 143             
1 43258U 18030K   26060.26698380 -.00000015  00000+0 -12369-4 0  9992
2 43258  86.4015 335.6839 0001818  88.3507 271.7897 14.34217347414628
IRIDIUM 161             
1 43478U 18047C   26060.29021329  .00000392  00000+0  11044-3 0  9994
2 43478  86.4516 133.5920 0002556  93.7027 266.4466 14.43281428409573
IRIDIUM 152             
1 43479U 18047D   26060.23970250  .00000246  00000+0  80605-4 0  9993
2 43479  86.3990 133.4735 0002275  93.1674 266.9782 14.34217779407013
IRIDIUM 147             
1 43480U 18047E   26060.24604473  .00000057  00000+0  13315-4 0  9991
2 43480  86.3991 133.4740 0002182  99.7147 260.4295 14.34217886407013
IRIDIUM 110             
1 43481U 18047F   26060.25238792  .00000047  00000+0  96009-5 0  9991
2 43481  86.3993 133.5597 0002441  91.1422 269.0053 14.34217868407003
IRIDIUM 162             
1 43482U 18047G   26060.28391025  .00000370  00000+0  10411-3 0  9994
2 43482  86.4513 133.4868 0002129  91.4585 268.6859 14.43280215409567
IRIDIUM 160             
1 43569U 18061A   26060.47729801  .00000070  00000+0  17905-4 0  9997
2 43569  86.3928 101.8532 0002380  93.1886 266.9582 14.34217834397939
IRIDIUM 166             
1 43570U 18061B   26060.50266744  .00000241  00000+0  78883-4 0  9997
2 43570  86.3925 101.7944 0002178  96.4907 263.6536 14.34218298397960
IRIDIUM 158             
1 43571U 18061C   26060.47095225  .00000242  00000+0  79281-4 0  9992
2 43571  86.3926 101.8176 0002148  89.6054 270.5388 14.34217193397925
IRIDIUM 165             
1 43572U 18061D   26060.49632534  .00000014  00000+0 -19051-5 0  9993
2 43572  86.3928 101.8514 0002207  97.5584 262.5863 14.34217128397956
IRIDIUM 155             
1 43573U 18061E   26060.10942651 -.00000069  00000+0 -31704-4 0  9995
2 43573  86.3923 101.8872 0001954  91.9952 268.1468 14.34217731397867
IRIDIUM 154             
1 43574U 18061F   26060.50902726  .00000290  00000+0  96547-4 0  9999
2 43574  86.3927 101.8487 0002179  99.0079 261.1363 14.34220419397979
IRIDIUM 163             
1 43575U 18061G   26060.48998232  .00000021  00000+0  56755-6 0  9995
2 43575  86.3927 101.7753 0002133  91.3861 268.7579 14.34217647397947
